{"fetched_at":"2026-03-29T16:36:15Z","count":15609,"tles":[{"name":"STARLINK-11672 [DTC]","line1":"1 63665U 25085B   26087.49132630  .00310211  00000+0  23236-2 0  9992","line2":"2 63665  43.0018 164.6580 0001262 149.1069 210.9873 15.70925071 53819","category":"Starlink"}]}